{"spkid": "50893652", "covariance": {"data": [["3.350583584112544E-16", "-2.745960937652955E-16", "4.751645575955964E-13", "8.086956234176989E-15", "3.518279015974574E-13", "4.287336714012275E-14"], ["-2.745960937652955E-16", "2.405369401439507E-16", "-3.807248027756283E-13", "-6.94324526611977E-15", "-2.935773477548131E-13", "-3.223838573083255E-14"], ["4.751645575955964E-13", "-3.807248027756283E-13", "7.176616285906574E-10", "1.268526333736029E-11", "5.329241987901583E-10", "6.398627819683218E-11"], ["8.086956234176989E-15", "-6.94324526611977E-15", "1.268526333736029E-11", "1.558432993165579E-11", "-5.302647179006643E-12", "6.557228050479553E-13"], ["3.518279015974574E-13", "-2.935773477548131E-13", "5.329241987901583E-10", "-5.302647179006643E-12", "4.216291725155425E-10", "4.593642828230228E-11"], ["4.287336714012275E-14", "-3.223838573083255E-14", "6.398627819683218E-11", "6.557228050479553E-13", "4.593642828230228E-11", "2.845090071789565E-11"]], "elements": [{"units": null, "title": "eccentricity", "value": ".2367618646098287", "name": "e", "sigma": 1.83045993786058e-08, "label": "e"}, {"value": "1.01597088124348", "title": "perihelion distance", "units": "au", "sigma": 1.55092533715827e-08, "name": "q", "label": "q"}, {"label": "tp", "title": "time of perihelion passage", "value": "2459396.131573547080", "units": "TDB", "sigma": 2.67892073154593e-05, "name": "tp"}, {"sigma": 3.94769932133335e-06, "name": "om", "units": "deg", "value": "253.8030916705108", "title": "longitude of the ascending node", "label": "node"}, {"label": "peri", "sigma": 2.05336108007224e-05, "name": "w", "units": "deg", "title": "argument of perihelion", "value": "192.5556754651517"}, {"units": "deg", "title": "inclination", "value": "12.64639478546786", "sigma": 5.33393857462716e-06, "name": "i", "label": "i"}], "labels": ["e", "q", "tp", "node", "peri", "i"], "epoch": "2459450.5"}, "elements": [{"title": "eccentricity", "value": ".2369160933078688", "units": null, "name": "e", "sigma": "1.8146E-8", "label": "e"}, {"label": "a", "sigma": "1.3108E-8", "name": "a", "title": "semi-major axis", "value": "1.331325425162011", "units": "au"}, {"sigma": "1.5434E-8", "name": "q", "units": "au", "value": "1.01591300651119", "title": "perihelion distance", "label": "q"}, {"label": "i", "units": "deg", "title": "inclination; angle with respect to x-y ecliptic plane", "value": "12.64676326043839", "name": "i", "sigma": "5.3342E-6"}, {"label": "node", "sigma": "3.9478E-6", "name": "om", "title": "longitude of the ascending node", "value": "253.779376499826", "units": "deg"}, {"label": "peri", "title": "argument of perihelion", "value": "192.5591366196912", "units": "deg", "name": "w", "sigma": "2.052E-5"}, {"title": "mean anomaly", "value": "77.82728824345584", "units": "deg", "sigma": "3.3776E-5", "name": "ma", "label": "M"}, {"units": "TDB", "title": "time of perihelion passage", "value": "2461079.201853769594", "name": "tp", "sigma": "5.0884E-5", "label": "tp"}, {"units": "d", "title": "sidereal orbital period", "value": "561.0799711580349", "name": "per", "sigma": "8.2865E-6", "label": "period"}, {"title": "mean motion", "value": ".6416197663534164", "units": "deg/d", "name": "n", "sigma": "9.476E-9", "label": "n"}, {"label": "Q", "value": "1.646737843812833", "title": "aphelion distance", "units": "au", "name": "ad", "sigma": "1.6214E-8"}], "epoch": "2461200.5"}